start=new Date('2021-10-17T00:00:00.000Z').valueOf();
sats=[{"MEAN_MOTION_DDOT":"0.0000000000000","NORAD_CAT_ID":"48286","REV_AT_EPOCH":"2696","SEMIMAJOR_AXIS":"6925.349","FILE":"3166230","TIME_SYSTEM":"UTC","EPHEMERIS_TYPE":"0","RCS_SIZE":"LARGE","PERIOD":"95.592","OBJECT_NAME":"STARLINK-2547","INCLINATION":"53.0564","RA_OF_ASC_NODE":"87.1821","DECAY_DATE":null,"BSTAR":"0.00007738100000","CENTER_NAME":"EARTH","SITE":"AFETR","OBJECT_ID":"2021-036L","PERIAPSIS":"545.963","MEAN_MOTION_DOT":"0.00000871","TLE_LINE1":"1 48286U 21036L   21289.58942096  .00000871  00000-0  77381-4 0  9991","COUNTRY_CODE":"US","MEAN_MOTION":"15.06400012","APOAPSIS":"548.464","ARG_OF_PERICENTER":"97.0913","MEAN_ELEMENT_THEORY":"SGP4","OBJECT_TYPE":"PAYLOAD","MEAN_ANOMALY":"263.0281","REF_FRAME":"TEME","LAUNCH_DATE":"2021-04-29","ECCENTRICITY":"0.00018060","GP_ID":"187326994","TLE_LINE2":"2 48286  53.0564  87.1821 0001806  97.0913 263.0281 15.06400012 26968","EPOCH":"2021-10-16T14:08:45.970944","CLASSIFICATION_TYPE":"U","ELEMENT_SET_NO":"999"},{"PERIAPSIS":"546.142","MEAN_MOTION_DOT":"-0.00000422","MEAN_MOTION":"15.06392540","TLE_LINE1":"1 48287U 21036M   21289.58574088 -.00000422  00000-0 -94413-5 0  9994","COUNTRY_CODE":"US","ARG_OF_PERICENTER":"102.9984","MEAN_ELEMENT_THEORY":"SGP4","APOAPSIS":"548.331","MEAN_ANOMALY":"257.1182","OBJECT_TYPE":"PAYLOAD","REF_FRAME":"TEME","LAUNCH_DATE":"2021-04-29","GP_ID":"187327391","TLE_LINE2":"2 48287  53.0552  87.1972 0001580 102.9984 257.1182 15.06392540 26966","EPOCH":"2021-10-16T14:03:28.012032","ECCENTRICITY":"0.00015800","CLASSIFICATION_TYPE":"U","ELEMENT_SET_NO":"999","NORAD_CAT_ID":"48287","REV_AT_EPOCH":"2696","MEAN_MOTION_DDOT":"0.0000000000000","FILE":"3166230","SEMIMAJOR_AXIS":"6925.371","TIME_SYSTEM":"UTC","EPHEMERIS_TYPE":"0","RCS_SIZE":"LARGE","INCLINATION":"53.0552","RA_OF_ASC_NODE":"87.1972","PERIOD":"95.593","OBJECT_NAME":"STARLINK-2566","DECAY_DATE":null,"BSTAR":"-0.00000944130000","OBJECT_ID":"2021-036M","SITE":"AFETR","CENTER_NAME":"EARTH"},{"DECAY_DATE":null,"INCLINATION":"53.0553","RA_OF_ASC_NODE":"89.0029","OBJECT_NAME":"STARLINK-2562","PERIOD":"95.592","OBJECT_ID":"2021-036N","SITE":"AFETR","CENTER_NAME":"EARTH","BSTAR":"0.00010238000000","FILE":"3166610","SEMIMAJOR_AXIS":"6925.334","NORAD_CAT_ID":"48288","REV_AT_EPOCH":"2632","MEAN_MOTION_DDOT":"0.0000000000000","EPHEMERIS_TYPE":"0","RCS_SIZE":"LARGE","TIME_SYSTEM":"UTC","LAUNCH_DATE":"2021-04-29","OBJECT_TYPE":"PAYLOAD","MEAN_ANOMALY":"258.9825","REF_FRAME":"TEME","ELEMENT_SET_NO":"999","CLASSIFICATION_TYPE":"U","TLE_LINE2":"2 48288  53.0553  89.0029 0001411 101.1323 258.9825 15.06404844 26327","GP_ID":"187357805","EPOCH":"2021-10-16T04:24:54.957024","ECCENTRICITY":"0.00014110","MEAN_MOTION_DOT":"0.00001244","PERIAPSIS":"546.222","ARG_OF_PERICENTER":"101.1323","MEAN_ELEMENT_THEORY":"SGP4","APOAPSIS":"548.176","MEAN_MOTION":"15.06404844","TLE_LINE1":"1 48288U 21036N   21289.18396941  .00001244  00000-0  10238-3 0  9993","COUNTRY_CODE":"US"},{"RCS_SIZE":"LARGE","EPHEMERIS_TYPE":"0","TIME_SYSTEM":"UTC","FILE":"3166610","SEMIMAJOR_AXIS":"6925.361","NORAD_CAT_ID":"48289","REV_AT_EPOCH":"2632","MEAN_MOTION_DDOT":"0.0000000000000","OBJECT_ID":"2021-036P","CENTER_NAME":"EARTH","SITE":"AFETR","BSTAR":"0.00007803500000","DECAY_DATE":null,"INCLINATION":"53.0547","RA_OF_ASC_NODE":"89.0199","PERIOD":"95.592","OBJECT_NAME":"STARLINK-2545","ARG_OF_PERICENTER":"101.6761","MEAN_ELEMENT_THEORY":"SGP4","APOAPSIS":"548.490","MEAN_MOTION":"15.06395938","COUNTRY_CODE":"US","TLE_LINE1":"1 48289U 21036P   21289.18028858  .00000881  00000-0  78035-4 0  9999","MEAN_MOTION_DOT":"0.00000881","PERIAPSIS":"545.962","CLASSIFICATION_TYPE":"U","ELEMENT_SET_NO":"999","GP_ID":"187356553","TLE_LINE2":"2 48289  53.0547  89.0199 0001825 101.6761 258.4433 15.06395938 26322","EPOCH":"2021-10-16T04:19:36.933312","ECCENTRICITY":"0.00018250","LAUNCH_DATE":"2021-04-29","MEAN_ANOMALY":"258.4433","OBJECT_TYPE":"PAYLOAD","REF_FRAME":"TEME"},{"ARG_OF_PERICENTER":"96.2904","MEAN_ELEMENT_THEORY":"SGP4","APOAPSIS":"548.270","MEAN_MOTION":"15.06391030","COUNTRY_CODE":"US","TLE_LINE1":"1 48290U 21036Q   21289.17661275 -.00000672  00000-0 -26252-4 0  9990","MEAN_MOTION_DOT":"-0.00000672","PERIAPSIS":"546.212","ELEMENT_SET_NO":"999","CLASSIFICATION_TYPE":"U","EPOCH":"2021-10-16T04:14:19.341600","GP_ID":"187357303","TLE_LINE2":"2 48290  53.0550  89.0557 0001486  96.2904 263.8254 15.06391030 26327","ECCENTRICITY":"0.00014860","LAUNCH_DATE":"2021-04-29","REF_FRAME":"TEME","OBJECT_TYPE":"PAYLOAD","MEAN_ANOMALY":"263.8254","RCS_SIZE":"LARGE","EPHEMERIS_TYPE":"0","TIME_SYSTEM":"UTC","FILE":"3166610","SEMIMAJOR_AXIS":"6925.376","REV_AT_EPOCH":"2632","NORAD_CAT_ID":"48290","MEAN_MOTION_DDOT":"0.0000000000000","OBJECT_ID":"2021-036Q","CENTER_NAME":"EARTH","SITE":"AFETR","BSTAR":"-0.00002625200000","DECAY_DATE":null,"RA_OF_ASC_NODE":"89.0557","INCLINATION":"53.0550","PERIOD":"95.593","OBJECT_NAME":"STARLINK-2540"},{"PERIAPSIS":"545.943","MEAN_MOTION_DOT":"0.00001404","MEAN_MOTION":"15.06400917","COUNTRY_CODE":"US","TLE_LINE1":"1 48291U 21036R   21289.17290738  .00001404  00000-0  11315-3 0  9998","ARG_OF_PERICENTER":"102.4465","MEAN_ELEMENT_THEORY":"SGP4","APOAPSIS":"548.479","OBJECT_TYPE":"PAYLOAD","MEAN_ANOMALY":"257.6729","REF_FRAME":"TEME","LAUNCH_DATE":"2021-04-29","GP_ID":"187357555","TLE_LINE2":"2 48291  53.0550  89.0625 0001831 102.4465 257.6729 15.06400917 26323","EPOCH":"2021-10-16T04:08:59.197632","ECCENTRICITY":"0.00018310","ELEMENT_SET_NO":"999","CLASSIFICATION_TYPE":"U","NORAD_CAT_ID":"48291","REV_AT_EPOCH":"2632","MEAN_MOTION_DDOT":"0.0000000000000","FILE":"3166610","SEMIMAJOR_AXIS":"6925.346","TIME_SYSTEM":"UTC","EPHEMERIS_TYPE":"0","RCS_SIZE":"MEDIUM","INCLINATION":"53.0550","RA_OF_ASC_NODE":"89.0625","PERIOD":"95.592","OBJECT_NAME":"STARLINK-2555","DECAY_DATE":null,"BSTAR":"0.00011315000000","OBJECT_ID":"2021-036R","SITE":"AFETR","CENTER_NAME":"EARTH"},{"TIME_SYSTEM":"UTC","EPHEMERIS_TYPE":"0","RCS_SIZE":"LARGE","REV_AT_EPOCH":"2632","NORAD_CAT_ID":"48292","MEAN_MOTION_DDOT":"0.0000000000000","FILE":"3166610","SEMIMAJOR_AXIS":"6925.390","BSTAR":"0.00001532600000","OBJECT_ID":"2021-036S","CENTER_NAME":"EARTH","SITE":"AFETR","RA_OF_ASC_NODE":"89.0788","INCLINATION":"53.0553","PERIOD":"95.593","OBJECT_NAME":"STARLINK-2542","DECAY_DATE":null,"MEAN_MOTION":"15.06386555","TLE_LINE1":"1 48292U 21036S   21289.16830054 -.00000053  00000-0  15326-4 0  9996","COUNTRY_CODE":"US","MEAN_ELEMENT_THEORY":"SGP4","ARG_OF_PERICENTER":"93.2720","APOAPSIS":"548.367","PERIAPSIS":"546.143","MEAN_MOTION_DOT":"-0.00000053","EPOCH":"2021-10-16T04:02:21.166656","GP_ID":"187358305","TLE_LINE2":"2 48292  53.0553  89.0788 0001606  93.2720 266.8452 15.06386555 26324","ECCENTRICITY":"0.00016060","ELEMENT_SET_NO":"999","CLASSIFICATION_TYPE":"U","REF_FRAME":"TEME","MEAN_ANOMALY":"266.8452","OBJECT_TYPE":"PAYLOAD","LAUNCH_DATE":"2021-04-29"},{"SEMIMAJOR_AXIS":"6925.357","FILE":"3166234","MEAN_MOTION_DDOT":"0.0000000000000","REV_AT_EPOCH":"2696","NORAD_CAT_ID":"48293","EPHEMERIS_TYPE":"0","RCS_SIZE":"LARGE","TIME_SYSTEM":"UTC","DECAY_DATE":null,"OBJECT_NAME":"STARLINK-2550","PERIOD":"95.592","RA_OF_ASC_NODE":"87.3022","INCLINATION":"53.0551","SITE":"AFETR","CENTER_NAME":"EARTH","OBJECT_ID":"2021-036T","BSTAR":"-0.00019422000000","MEAN_MOTION_DOT":"-0.00003173","PERIAPSIS":"546.091","APOAPSIS":"548.353","MEAN_ELEMENT_THEORY":"SGP4","ARG_OF_PERICENTER":"96.0209","COUNTRY_CODE":"US","TLE_LINE1":"1 48293U 21036T   21289.56364049 -.00003173  00000-0 -19422-3 0  9994","MEAN_MOTION":"15.06397301","LAUNCH_DATE":"2021-04-29","REF_FRAME":"TEME","OBJECT_TYPE":"PAYLOAD","MEAN_ANOMALY":"264.0966","ELEMENT_SET_NO":"999","CLASSIFICATION_TYPE":"U","ECCENTRICITY":"0.00016330","EPOCH":"2021-10-16T13:31:38.538336","GP_ID":"187327463","TLE_LINE2":"2 48293  53.0551  87.3022 0001633  96.0209 264.0966 15.06397301 26969"},{"MEAN_ANOMALY":"275.2600","OBJECT_TYPE":"PAYLOAD","REF_FRAME":"TEME","LAUNCH_DATE":"2021-04-29","ECCENTRICITY":"0.00014240","GP_ID":"187356804","TLE_LINE2":"2 48294  53.0574  89.1186 0001424  84.8552 275.2600 15.06391543 26321","EPOCH":"2021-10-16T03:53:05.104896","ELEMENT_SET_NO":"999","CLASSIFICATION_TYPE":"U","PERIAPSIS":"546.253","MEAN_MOTION_DOT":"-0.00000341","TLE_LINE1":"1 48294U 21036U   21289.16186464 -.00000341  00000-0 -39978-5 0  9998","COUNTRY_CODE":"US","MEAN_MOTION":"15.06391543","APOAPSIS":"548.226","ARG_OF_PERICENTER":"84.8552","MEAN_ELEMENT_THEORY":"SGP4","PERIOD":"95.593","OBJECT_NAME":"STARLINK-2533","INCLINATION":"53.0574","RA_OF_ASC_NODE":"89.1186","DECAY_DATE":null,"BSTAR":"-0.00000399780000","CENTER_NAME":"EARTH","SITE":"AFETR","OBJECT_ID":"2021-036U","MEAN_MOTION_DDOT":"0.0000000000000","NORAD_CAT_ID":"48294","REV_AT_EPOCH":"2632","SEMIMAJOR_AXIS":"6925.374","FILE":"3166610","TIME_SYSTEM":"UTC","EPHEMERIS_TYPE":"0","RCS_SIZE":"LARGE"},{"MEAN_MOTION_DOT":"0.00001054","PERIAPSIS":"546.066","ARG_OF_PERICENTER":"91.2472","MEAN_ELEMENT_THEORY":"SGP4","APOAPSIS":"548.403","MEAN_MOTION":"15.06393095","TLE_LINE1":"1 48295U 21036V   21289.15816706  .00001054  00000-0  89656-4 0  9994","COUNTRY_CODE":"US","LAUNCH_DATE":"2021-04-29","REF_FRAME":"TEME","OBJECT_TYPE":"PAYLOAD","MEAN_ANOMALY":"268.8711","CLASSIFICATION_TYPE":"U","ELEMENT_SET_NO":"999","EPOCH":"2021-10-16T03:47:45.633984","GP_ID":"187358055","TLE_LINE2":"2 48295  53.0574  89.1370 0001687  91.2472 268.8711 15.06393095 26326","ECCENTRICITY":"0.00016870","FILE":"3166610","SEMIMAJOR_AXIS":"6925.370","REV_AT_EPOCH":"2632","NORAD_CAT_ID":"48295","MEAN_MOTION_DDOT":"0.0000000000000","EPHEMERIS_TYPE":"0","RCS_SIZE":"LARGE","TIME_SYSTEM":"UTC","DECAY_DATE":null,"RA_OF_ASC_NODE":"89.1370","INCLINATION":"53.0574","OBJECT_NAME":"STARLINK-2535","PERIOD":"95.593","OBJECT_ID":"2021-036V","SITE":"AFETR","CENTER_NAME":"EARTH","BSTAR":"0.00008965600000"}];
